{"fetched_at":"2026-04-21T06:04:20Z","count":3506,"tles":[{"name":"STARLINK-35061","line1":"1 66191U 25243Q   26110.12510729  .00021590  00000+0  73916-3 0  9991","line2":"2 66191  53.1608  53.0804 0000507 292.8737  67.2210 15.30190784 26990","category":"Starlink"},{"name":"LEMUR-2-ZO","line1":"1 43886U 18111L   23362.44750761  .00015547  00000+0  92887-3 0  9999","line2":"2 43886  97.6258 269.1743 0011351 210.6058 149.4511 15.11127859271806","category":"Other"},{"name":"UNKNOWN","line1":"1 81537U          26104.58986267 -.00000099  00000+0 -30203-4 0  9999","line2":"2 81537  71.0399 215.0679 0078212 325.8654  33.7448 14.07181959637749","category":"Other"},{"name":"ATLAS CENTAUR R/B","line1":"1 10779U 78035B   26102.17056060 -.00000226  00000+0 -82256-3 0  9990","line2":"2 10779  21.9951  29.4292 7186257 204.7271  88.6193  2.22750546390426","category":"Other"},{"name":"STARLINK-4641","line1":"1 53730U 22107AG  26110.15935661  .00000149  00000+0  27450-4 0  9991","line2":"2 53730  53.2172  67.9853 0001529  77.3554 282.7609 15.08848232200812","category":"Starlink"},{"name":"STARLINK-30950","line1":"1 58440U 23183D   26109.95180595 -.00001540  00000+0 -46436-4 0  9996","line2":"2 58440  43.0027 332.1010 0001520 267.2733  92.7945 15.27574560135341","category":"Starlink"},{"name":"FLOCK 4G-20","line1":"1 62636U 25009AD  26110.49501304  .00063902  00000+0  14330-2 0  9997","line2":"2 62636  97.3890 193.6685 0004353 179.9217 180.2032 15.43179346 70196","category":"Other"},{"name":"FENGYUN 1C DEB","line1":"1 31640U 99025CAW 23177.09157429  .00128141  00000+0  22449-2 0  9995","line2":"2 31640  99.1780  45.1496 0067580 263.9349  95.4192 15.47568492871581","category":"Weather"},{"name":"STARLINK-3140","line1":"1 49460U 21104BE  26110.51401428 -.00000339  00000+0 -32229-5 0  9995","line2":"2 49460  53.2192  31.3620 0001479  95.1600 264.9561 15.08836889245082","category":"Starlink"},{"name":"ZQ-2E R/B","line1":"1 64054U 25103G   25156.48638369  .15733274  23782-5  19690-3 0  9993","line2":"2 64054  96.0687 229.0499 0043283  12.2432 114.5443 16.44901597  3063","category":"Other"},{"name":"BLOCK DM-SL R/B","line1":"1 27855U 03034B   26104.55437803 -.00000301  00000+0 -20988-2 0  9999","line2":"2 27855   0.9147 336.9597 7144124 238.3416  13.6866  2.24672721186279","category":"Other"},{"name":"STARLINK-5735","line1":"1 55603U 23020AL  26110.48639164 -.00002228  00000+0 -73380-4 0  9997","line2":"2 55603  43.0038 118.0118 0001735 286.3297  73.7364 15.26737029175434","category":"Starlink"},{"name":"STARLINK-31453","line1":"1 59522U 24073M   26110.57602680  .00027185  00000+0  99361-3 0  9996","line2":"2 59522  43.0016  63.6890 0001777 269.3334  90.7314 15.27585463112782","category":"Starlink"},{"name":"STARLINK-36064","line1":"1 66899U 25283X   26110.50153225  .00020727  00000+0  71021-3 0  9992","line2":"2 66899  53.1569 190.1009 0001139  82.6445 277.4685 15.30188768 22248","category":"Starlink"},{"name":"IRIDIUM 33 DEB","line1":"1 34773U 97051LS  23177.65296126  .00016575  00000+0  28786-2 0  9999","line2":"2 34773  86.4051  59.0021 0010438 260.7916  99.2118 14.68064080758056","category":"Other"},{"name":"STARLINK-3980","line1":"1 52611U 22052P   26110.34427599 -.00000226  00000+0  38673-5 0  9991","line2":"2 52611  53.2158  97.1246 0001576  80.8049 279.3122 15.08834583217076","category":"Starlink"},{"name":"STARLINK-34952","line1":"1 65197U 25175Z   26110.08903417  .00001596  00000+0  11478-3 0  9994","line2":"2 65197  97.6012 343.5204 0002345  86.9402 273.2093 15.05651256 38877","category":"Starlink"},{"name":"FENGYUN 1C DEB","line1":"1 30879U 99025AXR 26103.40438488  .00012722  00000+0  14746-2 0  9990","line2":"2 30879  99.3450 343.0171 0180645 266.2333  91.8200 14.74542227637281","category":"Weather"},{"name":"2023-085B","line1":"1 57005U 23085B   26050.32130576  .11845229  25609-5  82554-3 0  9991","line2":"2 57005  97.4452 177.9559 0011032 281.7959  78.2103 16.40396994149827","category":"Other"},{"name":"STARLINK-36829","line1":"1 67957U 26037AB  26109.92170384  .00021138  00000+0  75573-3 0  9998","line2":"2 67957  42.9988 318.1275 0001454 258.7656 101.3033 15.28426774  9642","category":"Starlink"},{"name":"COSMOS 2251 DEB","line1":"1 38004U 93036BRF 23178.81600223  .00010639  00000+0  23040-2 0  9998","line2":"2 38004  74.0348 346.0573 0014045 235.2737 124.7106 14.58221311724769","category":"Other"},{"name":"STARLINK-11331 [DTC]","line1":"1 61537U 24184F   26092.53260594  .05771683  13010+0  60692-2 0  9990","line2":"2 61537  53.1387 112.6584 0006285  74.6649 285.5083 16.16386795 84246","category":"Starlink"},{"name":"STARLINK-35616","line1":"1 66255U 25245X   26110.35644425  .00009522  00000+0  33322-3 0  9998","line2":"2 66255  53.1599  90.5073 0001088  78.0422 282.0701 15.30197008 27634","category":"Starlink"},{"name":"FLOCK 4A-6","line1":"1 44094C 19018S   23211.33983796  .22813258  00000-0  50095-2 0  2116","line2":"2 44094  97.2156 279.0701 0014575 259.8594 227.1423 16.30114491    15","category":"Other"},{"name":"UNKNOWN","line1":"1 82199U          26103.39918101  .00000384  00000+0  31909-3 0  9992","line2":"2 82199  82.9659 142.4306 0038626  53.8407 319.8321 13.85923760626546","category":"Other"},{"name":"SL-12 R/B(2)","line1":"1 12447U 80081F   26104.96843573 -.00000363  00000+0  00000+0 0  9994","line2":"2 12447   6.3247 290.8535 0005794  48.9775 339.5285  0.99970100163751","category":"Other"},{"name":"STARLINK-4752","line1":"1 53821U 22114D   23361.91079143 -.00000247  00000+0  25557-5 0  9990","line2":"2 53821  53.2165 252.7461 0001333  88.8702 271.2443 15.08839611 72412","category":"Starlink"},{"name":"2023-189C","line1":"1 58504U 23189C   24003.59663255  .00024408  00000+0  10159-2 0  9990","line2":"2 58504  97.4639  11.1360 0017897 184.8375 175.2692 15.23597583  4501","category":"Other"},{"name":"FENGYUN 1C DEB","line1":"1 31746U 99025CEV 26103.33698245  .00015410  00000+0  18159-2 0  9994","line2":"2 31746  98.5903 239.4474 0021656 178.0078 182.1224 14.84707604988276","category":"Weather"},{"name":"STARLINK-1735","line1":"1 46565U 20070AK  26110.60117955  .00089671  00000+0  71428-3 0  9994","line2":"2 46565  53.0389 272.7000 0006794 312.2624  47.7816 15.70436626306888","category":"Starlink"},{"name":"STPSAT-6","line1":"1 49817U 21118A   26110.55385782 -.00000046  00000+0  00000+0 0  9994","line2":"2 49817   0.1719  84.5983 0002169 244.9233 326.6490  1.00271564 15991","category":"Other"},{"name":"STARLINK-33964","line1":"1 64118U 25110Y   26110.48839466  .00018550  00000+0  63696-3 0  9998","line2":"2 64118  53.1593 192.4943 0001385 112.2423 247.8724 15.30195335 52288","category":"Starlink"},{"name":"SHIJIAN-6 01B (SJ-6 01B)","line1":"1 28414U 04035B   26110.58288041  .00004588  00000+0  31971-3 0  9995","line2":"2 28414  97.6094 129.1967 0004311   0.4605 359.6625 15.05909893178152","category":"Other"},{"name":"STARLINK-5463","line1":"1 55673U 23021AX  26110.59390115 -.00002336  00000+0 -18808-3 0  9990","line2":"2 55673  70.0016  58.7101 0002864 270.7307  89.3524 14.98320849175563","category":"Starlink"},{"name":"STARLINK-31704","line1":"1 59586U 24076Y   26110.29161940  .00058064  00000+0  15001-2 0  9995","line2":"2 59586  42.9934  87.0099 0011573 147.8995 212.2567 15.38244485113395","category":"Starlink"},{"name":"STARLINK-36133","line1":"1 66963U 25288E   26110.45400634  .00012281  00000+0  45522-3 0  9995","line2":"2 66963  43.0005 147.6811 0001430 268.0900  91.9788 15.27568390 21679","category":"Starlink"},{"name":"IRIDIUM 33 DEB","line1":"1 34926U 97051NF  26103.36050044  .00007625  00000+0  15149-2 0  9991","line2":"2 34926  86.1339 311.6017 0069851 242.9518 237.6743 14.60477454882287","category":"Other"},{"name":"STARLINK-3774","line1":"1 52680U 22053AA  26110.27248686 -.00001770  00000+0 -93171-4 0  9997","line2":"2 52680  53.2188 317.2141 0001726  80.4562 279.6625 15.08835720217433","category":"Starlink"},{"name":"2025-180C","line1":"1 65261U 25180C   26110.61056067  .00004034  00000+0  21957-3 0  9994","line2":"2 65261  97.5162 238.3525 0014961 156.0362 204.1569 15.14921986 36949","category":"Other"},{"name":"FENGYUN 1C DEB","line1":"1 30971U 99025BBM 26103.95971935  .00002257  00000+0  29685-3 0  9993","line2":"2 30971  99.1884 168.8343 0161518 173.4875   2.3612 14.72762253 15145","category":"Weather"},{"name":"STARLINK-5821","line1":"1 57069U 23088X   26110.00138434  .00000005  00000+0  96930-5 0  9997","line2":"2 57069  43.0015 223.2257 0001120 275.9757  84.0967 15.27576480156642","category":"Starlink"},{"name":"STARLINK-36858","line1":"1 68021U 26040G   26110.59176548 -.00061623  00000+0 -19289-2 0  9994","line2":"2 68021  97.2840  60.0742 0002086 132.1945 227.9475 15.33329819  7916","category":"Starlink"},{"name":"FENGYUN 1C DEB","line1":"1 38159U 99025ERG 26069.94463494  .00000746  00000+0  49778-3 0  9991","line2":"2 38159  99.3099 328.7115 0056959  96.9626 263.8023 14.03608969843494","category":"Weather"},{"name":"ONEWEB-0695","line1":"1 61602U 24188J   26110.51211338 -.00000407  00000+0 -11854-2 0  9995","line2":"2 61602  87.8923  32.5434 0001601  62.7894 297.3397 13.11416175 76901","category":"Other"},{"name":"STARLINK-35442","line1":"1 66319U 25253A   26110.03302414  .00015555  00000+0  57361-3 0  9994","line2":"2 66319  43.0030 339.3548 0001959 251.4362 108.6277 15.27578621 26563","category":"Starlink"},{"name":"LEMUR-2-ALEX-MADDY","line1":"1 44407U 19038X   24195.15116670  .10626445  27116-5  58963-3 0  9992","line2":"2 44407  97.6155 203.8674 0012066 242.1998 117.8079 16.41206853279113","category":"Other"},{"name":"UNKNOWN","line1":"1 83975U          23321.96759515 -.00000154  00000+0  00000+0 0  9999","line2":"2 83975  19.3205 303.3367 7013251 254.2799  23.9531  2.15315352 66075","category":"Other"},{"name":"SL-6 R/B(2)","line1":"1 13897U 83019D   26102.36147891  .00001119  00000+0  00000+0 0  9999","line2":"2 13897  62.6900 210.3165 7087117 277.0092  13.9739  1.97335983309337","category":"Other"}]}